{"type": "FeatureCollection", "features": [ {"type": "Feature", "properties": {"norad_id": 30613, "name": "FENGYUN 1C DEB", "group": "fengyun-1c-debris", "lat": -2.099321822097027, "lon": 123.43919340542413, "alt_km": 526.1566715570543, "timestamp": "2025-12-27T21:25:02.791736+00:00", "meta": {"OBJECT_NAME": "FENGYUN 1C DEB", "OBJECT_ID": "1999-025AMU", "EPOCH": "2025-12-27T07:12:36.707040", "MEAN_MOTION": 15.20236946, "ECCENTRICITY": 0.0059082, "INCLINATION": 98.3083, "RA_OF_ASC_NODE": 122.4805, "ARG_OF_PERICENTER": 116.7874, "MEAN_ANOMALY": 243.9419, "EPHEMERIS_TYPE": 0, "CLASSIFICATION_TYPE": "U", "NORAD_CAT_ID": 30613, "ELEMENT_SET_NO": 999, "REV_AT_EPOCH": 99617, "BSTAR": 0.0049758, "MEAN_MOTION_DOT": 0.0011458, "MEAN_MOTION_DDOT": 0}, "tle": {"line1": "1 30613U 99025AMU 25361.30042485  .00114580  00000+0  49758-2 0  9994", "line2": "2 30613  98.3083 122.4805 0059082 116.7874 243.9419 15.20236946996178"}}, "geometry": {"type": "Point", "coordinates": [123.43919340542413, -2.099321822097027]}}, {"type": "Feature", "properties": {"norad_id": 30616, "name": "FENGYUN 1C DEB", "group": "fengyun-1c-debris", "lat": -35.36006598682952, "lon": -128.3784005604039, "alt_km": 844.0112886724837, "timestamp": "2025-12-27T21:25:02.791747+00:00", "meta": {"OBJECT_NAME": "FENGYUN 1C DEB", "OBJECT_ID": "1999-025AMX", "EPOCH": "2025-12-25T14:24:23.518080", "MEAN_MOTION": 13.36050195, "ECCENTRICITY": 0.0381656, "INCLINATION": 98.6413, "RA_OF_ASC_NODE": 55.869, "ARG_OF_PERICENTER": 223.7679, "MEAN_ANOMALY": 133.261, "EPHEMERIS_TYPE": 0, "CLASSIFICATION_TYPE": "U", "NORAD_CAT_ID": 30616, "ELEMENT_SET_NO": 999, "REV_AT_EPOCH": 91872, "BSTAR": 0.0017371, "MEAN_MOTION_DOT": 1.313e-05, "MEAN_MOTION_DDOT": 0}, "tle": {"line1": "1 30616U 99025AMX 25359.60027220  .00001313  00000+0  17371-2 0  9992", "line2": "2 30616  98.6413  55.8690 0381656 223.7679 133.2610 13.36050195918723"}}, "geometry": {"type": "Point", "coordinates": [-128.3784005604039, -35.36006598682952]}}, {"type": "Feature", "properties": {"norad_id": 30619, "name": "FENGYUN 1C DEB", "group": "fengyun-1c-debris", "lat": 42.87432676069946, "lon": -147.82960075124157, "alt_km": 833.8822137439201, "timestamp": "2025-12-27T21:25:02.791759+00:00", "meta": {"OBJECT_NAME": "FENGYUN 1C DEB", "OBJECT_ID": "1999-025ANA", "EPOCH": "2025-12-26T08:08:24.002016", "MEAN_MOTION": 14.41128934, "ECCENTRICITY": 0.0215168, "INCLINATION": 98.2945, "RA_OF_ASC_NODE": 22.8779, "ARG_OF_PERICENTER": 17.5434, "MEAN_ANOMALY": 343.3041, "EPHEMERIS_TYPE": 0, "CLASSIFICATION_TYPE": "U", "NORAD_CAT_ID": 30619, "ELEMENT_SET_NO": 999, "REV_AT_EPOCH": 99145, "BSTAR": 0.00032611, "MEAN_MOTION_DOT": 1.333e-05, "MEAN_MOTION_DDOT": 0}, "tle": {"line1": "1 30619U 99025ANA 25360.33916669  .00001333  00000+0  32611-3 0  9998", "line2": "2 30619  98.2945  22.8779 0215168  17.5434 343.3041 14.41128934991453"}}, "geometry": {"type": "Point", "coordinates": [-147.82960075124157, 42.87432676069946]}}, {"type": "Feature", "properties": {"norad_id": 30621, "name": "FENGYUN 1C DEB", "group": "fengyun-1c-debris", "lat": -67.4681081010125, "lon": 103.01698242623232, "alt_km": 791.8108600418591, "timestamp": "2025-12-27T21:25:02.791769+00:00", "meta": {"OBJECT_NAME": "FENGYUN 1C DEB", "OBJECT_ID": "1999-025ANC", "EPOCH": "2025-12-24T07:27:03.076992", "MEAN_MOTION": 14.03900271, "ECCENTRICITY": 0.01363988, "INCLINATION": 98.6975, "RA_OF_ASC_NODE": 301.2402, "ARG_OF_PERICENTER": 274.3159, "MEAN_ANOMALY": 241.7775, "EPHEMERIS_TYPE": 0, "CLASSIFICATION_TYPE": "U", "NORAD_CAT_ID": 30621, "ELEMENT_SET_NO": 999, "REV_AT_EPOCH": 95752, "BSTAR": 0.0022507606, "MEAN_MOTION_DOT": 3.816e-05, "MEAN_MOTION_DDOT": 0}, "tle": {"line1": "1 30621U 99025ANC 25358.31045228  .00003816  00000+0  22508-2 0  9991", "line2": "2 30621  98.6975 301.2402 0136398 274.3159 241.7775 14.03900271957529"}}, "geometry": {"type": "Point", "coordinates": [103.01698242623232, -67.4681081010125]}}, {"type": "Feature", "properties": {"norad_id": 30622, "name": "FENGYUN 1C DEB", "group": "fengyun-1c-debris", "lat": -15.75748959736521, "lon": -165.7177587640964, "alt_km": 829.5898758933117, "timestamp": "2025-12-27T21:25:02.791780+00:00", "meta": {"OBJECT_NAME": "FENGYUN 1C DEB", "OBJECT_ID": "1999-025AND", "EPOCH": "2025-12-23T20:00:58.826016", "MEAN_MOTION": 14.31388151, "ECCENTRICITY": 0.0072428, "INCLINATION": 101.0013, "RA_OF_ASC_NODE": 12.3003, "ARG_OF_PERICENTER": 344.4391, "MEAN_ANOMALY": 189.7638, "EPHEMERIS_TYPE": 0, "CLASSIFICATION_TYPE": "U", "NORAD_CAT_ID": 30622, "ELEMENT_SET_NO": 999, "REV_AT_EPOCH": 68956, "BSTAR": 0.0030539544, "MEAN_MOTION_DOT": 8.28e-05, "MEAN_MOTION_DDOT": 0}, "tle": {"line1": "1 30622U 99025AND 25357.83401419  .00008280  00000+0  30540-2 0  9991", "line2": "2 30622 101.0013  12.3003 0072428 344.4391 189.7638 14.31388151689562"}}, "geometry": {"type": "Point", "coordinates": [-165.7177587640964, -15.75748959736521]}}, {"type": "Feature", "properties": {"norad_id": 30623, "name": "FENGYUN 1C DEB", "group": "fengyun-1c-debris", "lat": -57.51385624952508, "lon": -15.660710646784297, "alt_km": 1453.1488926041402, "timestamp": "2025-12-27T21:25:02.791790+00:00", "meta": {"OBJECT_NAME": "FENGYUN 1C DEB", "OBJECT_ID": "1999-025ANE", "EPOCH": "2025-12-27T11:29:21.336288", "MEAN_MOTION": 13.29351103, "ECCENTRICITY": 0.0403692, "INCLINATION": 98.823, "RA_OF_ASC_NODE": 178.1025, "ARG_OF_PERICENTER": 71.4237, "MEAN_ANOMALY": 347.459, "EPHEMERIS_TYPE": 0, "CLASSIFICATION_TYPE": "U", "NORAD_CAT_ID": 30623, "ELEMENT_SET_NO": 999, "REV_AT_EPOCH": 91412, "BSTAR": 0.00065779, "MEAN_MOTION_DOT": 4.44e-06, "MEAN_MOTION_DDOT": 0}, "tle": {"line1": "1 30623U 99025ANE 25361.47871917  .00000444  00000+0  65779-3 0  9998", "line2": "2 30623  98.8230 178.1025 0403692  71.4237 347.4590 13.29351103914125"}}, "geometry": {"type": "Point", "coordinates": [-15.660710646784297, -57.51385624952508]}}, {"type": "Feature", "properties": {"norad_id": 30624, "name": "FENGYUN 1C DEB", "group": "fengyun-1c-debris", "lat": 21.953404890289722, "lon": 81.42493142831258, "alt_km": 698.5294597210686, "timestamp": "2025-12-27T21:25:02.791801+00:00", "meta": {"OBJECT_NAME": "FENGYUN 1C DEB", "OBJECT_ID": "1999-025ANF", "EPOCH": "2025-12-27T04:54:04.677120", "MEAN_MOTION": 14.62965017, "ECCENTRICITY": 0.0023724, "INCLINATION": 98.8855, "RA_OF_ASC_NODE": 84.2998, "ARG_OF_PERICENTER": 228.4414, "MEAN_ANOMALY": 131.4751, "EPHEMERIS_TYPE": 0, "CLASSIFICATION_TYPE": "U", "NORAD_CAT_ID": 30624, "ELEMENT_SET_NO": 999, "REV_AT_EPOCH": 97707, "BSTAR": 0.005356, "MEAN_MOTION_DOT": 0.00027596, "MEAN_MOTION_DDOT": 0}, "tle": {"line1": "1 30624U 99025ANF 25361.20422080  .00027596  00000+0  53560-2 0  9994", "line2": "2 30624  98.8855  84.2998 0023724 228.4414 131.4751 14.62965017977076"}}, "geometry": {"type": "Point", "coordinates": [81.42493142831258, 21.953404890289722]}}, {"type": "Feature", "properties": {"norad_id": 30625, "name": "FENGYUN 1C DEB", "group": "fengyun-1c-debris", "lat": -79.0468298242082, "lon": 12.844599400072614, "alt_km": 727.4369711385416, "timestamp": "2025-12-27T21:25:02.791812+00:00", "meta": {"OBJECT_NAME": "FENGYUN 1C DEB", "OBJECT_ID": "1999-025ANG", "EPOCH": "2025-12-27T03:29:00.262752", "MEAN_MOTION": 14.41878845, "ECCENTRICITY": 0.004759, "INCLINATION": 98.9272, "RA_OF_ASC_NODE": 317.7535, "ARG_OF_PERICENTER": 259.5806, "MEAN_ANOMALY": 100.0016, "EPHEMERIS_TYPE": 0, "CLASSIFICATION_TYPE": "U", "NORAD_CAT_ID": 30625, "ELEMENT_SET_NO": 999, "REV_AT_EPOCH": 96900, "BSTAR": 0.0044711, "MEAN_MOTION_DOT": 0.00014814, "MEAN_MOTION_DDOT": 0}, "tle": {"line1": "1 30625U 99025ANG 25361.14514193  .00014814  00000+0  44711-2 0  9992", "line2": "2 30625  98.9272 317.7535 0047590 259.5806 100.0016 14.41878845969008"}}, "geometry": {"type": "Point", "coordinates": [12.844599400072614, -79.0468298242082]}}, {"type": "Feature", "properties": {"norad_id": 30628, "name": "FENGYUN 1C DEB", "group": "fengyun-1c-debris", "lat": 4.894391072839194, "lon": -81.02708702634601, "alt_km": 680.052939834889, "timestamp": "2025-12-27T21:25:02.791824+00:00", "meta": {"OBJECT_NAME": "FENGYUN 1C DEB", "OBJECT_ID": "1999-025ANK", "EPOCH": "2025-12-26T17:36:49.255488", "MEAN_MOTION": 14.69456171, "ECCENTRICITY": 0.00218645, "INCLINATION": 99.3394, "RA_OF_ASC_NODE": 278.4571, "ARG_OF_PERICENTER": 200.3837, "MEAN_ANOMALY": 159.6494, "EPHEMERIS_TYPE": 0, "CLASSIFICATION_TYPE": "U", "NORAD_CAT_ID": 30628, "ELEMENT_SET_NO": 999, "REV_AT_EPOCH": 98676, "BSTAR": 0.0027421358, "MEAN_MOTION_DOT": 0.00016275, "MEAN_MOTION_DDOT": 0}, "tle": {"line1": "1 30628U 99025ANK 25360.73390342  .00016275  00000+0  27421-2 0  9999", "line2": "2 30628  99.3394 278.4571 0021864 200.3837 159.6494 14.69456171986764"}}, "geometry": {"type": "Point", "coordinates": [-81.02708702634601, 4.894391072839194]}}, {"type": "Feature", "properties": {"norad_id": 30629, "name": "FENGYUN 1C DEB", "group": "fengyun-1c-debris", "lat": -0.8278490801959753, "lon": 99.69471974199963, "alt_km": 701.2093944436065, "timestamp": "2025-12-27T21:25:02.791837+00:00", "meta": {"OBJECT_NAME": "FENGYUN 1C DEB", "OBJECT_ID": "1999-025ANL", "EPOCH": "2025-12-27T05:14:30.440832", "MEAN_MOTION": 14.59966827, "ECCENTRICITY": 0.0007241, "INCLINATION": 99.2499, "RA_OF_ASC_NODE": 98.8087, "ARG_OF_PERICENTER": 166.1213, "MEAN_ANOMALY": 252.8041, "EPHEMERIS_TYPE": 0, "CLASSIFICATION_TYPE": "U", "NORAD_CAT_ID": 30629, "ELEMENT_SET_NO": 999, "REV_AT_EPOCH": 98101, "BSTAR": 0.0034679, "MEAN_MOTION_DOT": 0.00016618, "MEAN_MOTION_DDOT": 0}, "tle": {"line1": "1 30629U 99025ANL 25361.21840788  .00016618  00000+0  34679-2 0  9992", "line2": "2 30629  99.2499  98.8087 0007241 166.1213 252.8041 14.59966827981016"}}, "geometry": {"type": "Point", "coordinates": [99.69471974199963, -0.8278490801959753]}}]}